NORAD_CAT_ID,OBJECT_NAME,OBJECT_TYPE,EPOCH,MEAN_MOTION,ECCENTRICITY,INCLINATION,RA_OF_ASC_NODE,ARG_OF_PERICENTER,MEAN_ANOMALY,BSTAR,MEAN_MOTION_DOT,MEAN_MOTION_DDOT,TLE_LINE0,TLE_LINE1,TLE_LINE2,SEMIMAJOR_AXIS,PERIOD,APOGEE,PERIGEE,DECAYED
52376.0,STARLINK-3767,PAYLOAD,2022-12-04 14:47:09,15.08832881,0.0002783,53.2172,136.0507,53.231,306.8937,0.00011715,1.576e-05,0.0,0 STARLINK-3767,1 52376U 22045AX  22338.61607641  .00001576  00000-0  11715-3 0  9992,2 52376  53.2172 136.0507 0002783  53.2310 306.8937 15.08832881 36112,6917.901999999999,95.438,541.692,537.842,0.0
52376.0,STARLINK-3767,PAYLOAD,2022-12-04 19:33:18,15.08835732,0.0002806,53.2173,135.1587,53.4535,306.6715,0.00013691,1.891e-05,0.0,0 STARLINK-3767,1 52376U 22045AX  22338.81479543  .00001891  00000-0  13691-3 0  9997,2 52376  53.2173 135.1587 0002806  53.4535 306.6715 15.08835732 36141,6917.893,95.438,541.7,537.817,0.0
52376.0,STARLINK-3767,PAYLOAD,2022-12-05 09:51:46,15.08843902,0.0002807,53.2177,132.4822,54.9063,305.2192,0.00016486,2.337e-05,0.0,0 STARLINK-3767,1 52376U 22045AX  22339.41095018  .00002337  00000-0  16486-3 0  9996,2 52376  53.2177 132.4822 0002807  54.9063 305.2192 15.08843902 36232,6917.868,95.437,541.675,537.7919999999998,0.0
52376.0,STARLINK-3767,PAYLOAD,2022-12-05 19:24:04,15.08845486,0.0002755,53.2177,130.6984,54.1204,306.0044,0.0001279,1.748e-05,0.0,0 STARLINK-3767,1 52376U 22045AX  22339.80838964  .00001748  00000-0  12790-3 0  9993,2 52376  53.2177 130.6984 0002755  54.1204 306.0044 15.08845486 36292,6917.864000000001,95.437,541.634,537.823,0.0
52376.0,STARLINK-3767,PAYLOAD,2022-12-06 03:21:00,15.08842243,0.0002697,53.2173,129.2119,53.8329,306.2913,8.1903e-05,1.015e-05,0.0,0 STARLINK-3767,1 52376U 22045AX  22340.13959285  .00001015  00000-0  81903-4 0  9991,2 52376  53.2173 129.2119 0002697  53.8329 306.2913 15.08842243 36342,6917.874,95.437,541.604,537.873,0.0
52376.0,STARLINK-3767,PAYLOAD,2022-12-06 09:42:33,15.0884552,0.0002698,53.2174,128.0223,54.1141,306.0101,9.6904e-05,1.254e-05,0.0,0 STARLINK-3767,1 52376U 22045AX  22340.40454976  .00001254  00000-0  96904-4 0  9990,2 52376  53.2174 128.0223 0002698  54.1141 306.0101 15.08845520 36385,6917.864000000001,95.437,541.595,537.862,0.0
52376.0,STARLINK-3767,PAYLOAD,2022-12-06 16:04:05,15.08846831,0.0002712,53.2174,126.8329,54.5804,305.5441,0.00010094,1.319e-05,0.0,0 STARLINK-3767,1 52376U 22045AX  22340.66950815  .00001319  00000-0  10094-3 0  9998,2 52376  53.2174 126.8329 0002712  54.5804 305.5441 15.08846831 36427,6917.86,95.437,541.601,537.8480000000002,0.0
52376.0,STARLINK-3767,PAYLOAD,2022-12-06 22:25:38,15.0883929,0.0002726,53.218,125.6428,55.1546,304.9702,-1.138e-05,-4.7e-06,0.0,0 STARLINK-3767,1 52376U 22045AX  22340.93447592 -.00000470  00000-0 -11380-4 0  9990,2 52376  53.2180 125.6428 0002726  55.1546 304.9702 15.08839290 36464,6917.8830000000025,95.438,541.633,537.862,0.0
52376.0,STARLINK-3767,PAYLOAD,2022-12-07 09:33:20,15.08843704,0.0002648,53.2182,123.5612,54.9291,305.1949,1.0181e-05,-1.26e-06,0.0,0 STARLINK-3767,1 52376U 22045AX  22341.39815191 -.00000126  00000-0  10181-4 0  9990,2 52376  53.2182 123.5612 0002648  54.9291 305.1949 15.08843704 36534,6917.869000000002,95.437,541.566,537.9019999999998,0.0
52376.0,STARLINK-3767,PAYLOAD,2022-12-07 20:41:01,15.08857635,0.0002689,53.2179,121.4799,55.1959,304.9286,6.0302e-05,6.72e-06,0.0,0 STARLINK-3767,1 52376U 22045AX  22341.86181963  .00000672  00000-0  60302-4 0  9990,2 52376  53.2179 121.4799 0002689  55.1959 304.9286 15.08857635 36609,6917.826,95.436,541.552,537.831,0.0
52376.0,STARLINK-3767,PAYLOAD,2022-12-08 03:02:34,15.08848687,0.0003276,53.2191,120.2917,50.5819,309.5463,0.00010671,1.41e-05,0.0,0 STARLINK-3767,1 52376U 22045AX  22342.12678483  .00001410  00000-0  10671-3 0  9992,2 52376  53.2191 120.2917 0003276  50.5819 309.5463 15.08848687 36648,6917.854,95.437,541.985,537.453,0.0
52376.0,STARLINK-3767,PAYLOAD,2022-12-08 15:45:39,15.08849847,0.000272,53.2195,117.9155,49.9701,310.153,4.6499e-05,4.52e-06,0.0,0 STARLINK-3767,1 52376U 22045AX  22342.65670179  .00000452  00000-0  46499-4 0  9997,2 52376  53.2195 117.9155 0002720  49.9701 310.1530 15.08849847 36725,6917.85,95.437,541.597,537.8340000000002,0.0
52376.0,STARLINK-3767,PAYLOAD,2022-12-08 20:31:47,15.0885191,0.0002644,53.217,117.0213,48.2671,311.8547,0.00020303,2.945e-05,0.0,0 STARLINK-3767,1 52376U 22045AX  22342.85541437  .00002945  00000-0  20303-3 0  9997,2 52376  53.2170 117.0213 0002644  48.2671 311.8547 15.08851910 36750,6917.844,95.437,541.538,537.88,0.0
52376.0,STARLINK-3767,PAYLOAD,2022-12-10 12:16:29,15.08799963,0.0001843,53.2182,109.5906,11.6351,348.4684,0.00050665,7.776e-05,0.0,0 STARLINK-3767,1 52376U 22045AX  22344.51145003  .00007776  00000-0  50665-3 0  9992,2 52376  53.2182 109.5906 0001843  11.6351 348.4684 15.08799963 37003,6918.003000000002,95.44,541.143,538.5930000000002,0.0
52376.0,STARLINK-3767,PAYLOAD,2022-12-10 15:27:14,15.08837677,0.0002516,53.2188,108.9914,56.4721,303.6511,-2.1764e-05,-6.35e-06,0.0,0 STARLINK-3767,1 52376U 22045AX  22344.64391484 -.00000635  00000-0 -21764-4 0  9990,2 52376  53.2188 108.9914 0002516  56.4721 303.6511 15.08837677 37026,6917.887,95.438,541.493,538.012,0.0
52376.0,STARLINK-3767,PAYLOAD,2022-12-11 12:07:14,15.08840696,0.0002332,53.2192,105.1247,52.744,307.3765,0.00014567,2.031e-05,0.0,0 STARLINK-3767,1 52376U 22045AX  22345.50503286  .00002031  00000-0  14567-3 0  9993,2 52376  53.2192 105.1247 0002332  52.7440 307.3765 15.08840696 37153,6917.878000000002,95.438,541.357,538.13,0.0
52376.0,STARLINK-3767,PAYLOAD,2022-12-11 13:42:37,15.08841051,0.0002341,53.2186,104.8271,52.0589,308.0614,0.00015038,2.106e-05,0.0,0 STARLINK-3767,1 52376U 22045AX  22345.57127275  .00002106  00000-0  15038-3 0  9997,2 52376  53.2186 104.8271 0002341  52.0589 308.0614 15.08841051 37164,6917.877,95.437,541.362,538.123,0.0
52376.0,STARLINK-3767,PAYLOAD,2022-12-12 11:58:01,15.0884291,0.0002616,53.2174,100.6653,43.3873,316.7325,-6.1455e-05,-1.267e-05,0.0,0 STARLINK-3767,1 52376U 22045AX  22346.49863215 -.00001267  00000-0 -61455-4 0  9994,2 52376  53.2174 100.6653 0002616  43.3873 316.7325 15.08842910 37309,6917.871,95.437,541.5459999999998,537.927,0.0
52376.0,STARLINK-3767,PAYLOAD,2022-12-13 00:41:07,15.08839151,0.0002519,53.2181,98.2863,48.4087,311.712,2.289800000000001e-05,7.6e-07,0.0,0 STARLINK-3767,1 52376U 22045AX  22347.02855808  .00000076  00000-0  22898-4 0  9996,2 52376  53.2181  98.2863 0002519  48.4087 311.7120 15.08839151 37386,6917.8830000000025,95.438,541.491,538.005,0.0
52376.0,STARLINK-3767,PAYLOAD,2022-12-13 08:38:03,15.08836397,0.000254,53.218,96.7995,49.5281,310.5932,2.3384e-05,8.4e-07,0.0,0 STARLINK-3767,1 52376U 22045AX  22347.35976003  .00000084  00000-0  23384-4 0  9993,2 52376  53.2180  96.7995 0002540  49.5281 310.5932 15.08836397 37439,6917.891,95.438,541.514,537.999,0.0
52376.0,STARLINK-3767,PAYLOAD,2022-12-13 16:34:58,15.08839088,0.0002559,53.217,95.3119,48.9277,311.1935,3.9981e-05,3.48e-06,0.0,0 STARLINK-3767,1 52376U 22045AX  22347.69095802  .00000348  00000-0  39981-4 0  9992,2 52376  53.2170  95.3119 0002559  48.9277 311.1935 15.08839088 37484,6917.8830000000025,95.438,541.518,537.9780000000002,0.0
52376.0,STARLINK-3767,PAYLOAD,2022-12-14 00:31:54,15.08843325,0.0002596,53.2167,93.8249,48.5199,311.6016,5.6299e-05,6.08e-06,0.0,0 STARLINK-3767,1 52376U 22045AX  22348.02215463  .00000608  00000-0  56299-4 0  9997,2 52376  53.2167  93.8249 0002596  48.5199 311.6016 15.08843325 37537,6917.87,95.437,541.531,537.939,0.0
52376.0,STARLINK-3767,PAYLOAD,2022-12-14 19:36:31,15.08839112,0.0002431,53.2182,90.2576,45.3255,314.7935,9.5462e-05,1.231e-05,0.0,0 STARLINK-3767,1 52376U 22045AX  22348.81703568  .00001231  00000-0  95462-4 0  9990,2 52376  53.2182  90.2576 0002431  45.3255 314.7935 15.08839112 37650,6917.8830000000025,95.438,541.43,538.066,0.0
52376.0,STARLINK-3767,PAYLOAD,2022-12-15 06:44:14,15.08822864,0.0002313,53.218,88.1757,46.8404,313.2781,0.00026891,3.992e-05,0.0,0 STARLINK-3767,1 52376U 22045AX  22349.28072210  .00003992  00000-0  26891-3 0  9990,2 52376  53.2180  88.1757 0002313  46.8404 313.2781 15.08822864 37723,6917.933000000001,95.439,541.398,538.198,0.0
52376.0,STARLINK-3767,PAYLOAD,2022-12-15 13:05:46,15.08834075,0.0002296,53.2177,86.9871,40.2915,319.8247,7.5399e-05,9.12e-06,0.0,0 STARLINK-3767,1 52376U 22045AX  22349.54567975  .00000912  00000-0  75399-4 0  9993,2 52376  53.2177  86.9871 0002296  40.2915 319.8247 15.08834075 37767,6917.898,95.438,541.352,538.175,0.0
52376.0,STARLINK-3767,PAYLOAD,2022-12-15 16:16:32,15.08842944,0.0002214,53.2183,86.3916,43.6629,316.4538,6.5717e-05,7.58e-06,0.0,0 STARLINK-3767,1 52376U 22045AX  22349.67815422  .00000758  00000-0  65717-4 0  9991,2 52376  53.2183  86.3916 0002214  43.6629 316.4538 15.08842944 37789,6917.871,95.437,541.268,538.205,0.0
52376.0,STARLINK-3767,PAYLOAD,2022-12-16 00:13:27,15.08852303,0.0002123,53.2194,84.9046,43.6341,316.4819,0.00012157,1.648e-05,0.0,0 STARLINK-3767,1 52376U 22045AX  22350.00934511  .00001648  00000-0  12157-3 0  9999,2 52376  53.2194  84.9046 0002123  43.6341 316.4819 15.08852303 37837,6917.843000000003,95.437,541.1759999999998,538.239,0.0
52376.0,STARLINK-3767,PAYLOAD,2022-12-16 06:35:00,15.08841273,0.0002245,53.2177,83.7164,38.9161,321.1993,4.716100000000001e-05,4.62e-06,0.0,0 STARLINK-3767,1 52376U 22045AX  22350.27431315  .00000462  00000-0  47161-4 0  9999,2 52376  53.2177  83.7164 0002245  38.9161 321.1993 15.08841273 37872,6917.876,95.437,541.295,538.188,0.0
52376.0,STARLINK-3767,PAYLOAD,2022-12-16 12:56:33,15.0883803,0.0002217,53.2199,82.5288,46.4857,313.6319,-5.4472e-05,-1.155e-05,0.0,0 STARLINK-3767,1 52376U 22045AX  22350.53927847 -.00001155  00000-0 -54472-4 0  9993,2 52376  53.2199  82.5288 0002217  46.4857 313.6319 15.08838030 37915,6917.886,95.438,541.285,538.2180000000002,0.0
